{
  "type": "FeatureCollection",
  "features": [
    {
      "type": "Feature",
      "properties": {
        "norad_id": 41890,
        "name": "CYGFM07",
        "group": "weather",
        "lat": 24.887759671212596,
        "lon": 137.38399031462882,
        "alt_km": 414.1680657972638,
        "timestamp": "2025-12-16T03:53:26.701168+00:00",
        "meta_object_name": "CYGFM07",
        "meta_object_id": "2016-078G",
        "meta_epoch": "2025-12-15T08:46:22.668960",
        "meta_mean_motion": 15.50118833,
        "meta_eccentricity": 0.00100939,
        "meta_inclination": 34.9485,
        "meta_ra_of_asc_node": 4.236,
        "meta_arg_of_pericenter": 238.3569,
        "meta_mean_anomaly": 121.6169,
        "meta_ephemeris_type": 0,
        "meta_classification_type": "U",
        "meta_norad_cat_id": 41890,
        "meta_element_set_no": 999,
        "meta_rev_at_epoch": 50036,
        "meta_bstar": 0.00028250995,
        "meta_mean_motion_dot": 0.0001642,
        "meta_mean_motion_ddot": 0,
        "tle_line1": "1 41890U 16078G   25349.36554015  .00016420  00000+0  28251-3 0  9999",
        "tle_line2": "2 41890  34.9485   4.2360 0010093 238.3569 121.6169 15.50118833500366"
      },
      "geometry": {
        "type": "Point",
        "coordinates": [
          137.38399031462882,
          24.887759671212596
        ]
      }
    },
    {
      "type": "Feature",
      "properties": {
        "norad_id": 41891,
        "name": "CYGFM03",
        "group": "weather",
        "lat": -18.535139535824754,
        "lon": -27.763024860482204,
        "alt_km": 417.8126733798308,
        "timestamp": "2025-12-16T03:53:26.701179+00:00",
        "meta_object_name": "CYGFM03",
        "meta_object_id": "2016-078H",
        "meta_epoch": "2025-12-15T07:56:27.845376",
        "meta_mean_motion": 15.50015632,
        "meta_eccentricity": 0.00094999,
        "meta_inclination": 34.9439,
        "meta_ra_of_asc_node": 6.3837,
        "meta_arg_of_pericenter": 225.9581,
        "meta_mean_anomaly": 134.0359,
        "meta_ephemeris_type": 0,
        "meta_classification_type": "U",
        "meta_norad_cat_id": 41891,
        "meta_element_set_no": 999,
        "meta_rev_at_epoch": 50033,
        "meta_bstar": 0.00029283718,
        "meta_mean_motion_dot": 0.00016957,
        "meta_mean_motion_ddot": 0,
        "tle_line1": "1 41891U 16078H   25349.33087784  .00016957  00000+0  29284-3 0  9993",
        "tle_line2": "2 41891  34.9439   6.3837 0009499 225.9581 134.0359 15.50015632500331"
      },
      "geometry": {
        "type": "Point",
        "coordinates": [
          -27.763024860482204,
          -18.535139535824754
        ]
      }
    },
    {
      "type": "Feature",
      "properties": {
        "norad_id": 43010,
        "name": "FENGYUN 3D",
        "group": "weather",
        "lat": -28.824184782643236,
        "lon": 131.5263728690313,
        "alt_km": 831.6405961325681,
        "timestamp": "2025-12-16T03:53:26.701193+00:00",
        "meta_object_name": "FENGYUN 3D",
        "meta_object_id": "2017-072A",
        "meta_epoch": "2025-12-15T08:18:09.978048",
        "meta_mean_motion": 14.19684632,
        "meta_eccentricity": 0.00010447,
        "meta_inclination": 98.989,
        "meta_ra_of_asc_node": 315.6953,
        "meta_arg_of_pericenter": 172.0819,
        "meta_mean_anomaly": 188.0373,
        "meta_ephemeris_type": 0,
        "meta_classification_type": "U",
        "meta_norad_cat_id": 43010,
        "meta_element_set_no": 999,
        "meta_rev_at_epoch": 41890,
        "meta_bstar": 5.3302195e-05,
        "meta_mean_motion_dot": 6.7e-07,
        "meta_mean_motion_ddot": 0,
        "tle_line1": "1 43010U 17072A   25349.34594882  .00000067  00000+0  53302-4 0  9990",
        "tle_line2": "2 43010  98.9890 315.6953 0001044 172.0819 188.0373 14.19684632418908"
      },
      "geometry": {
        "type": "Point",
        "coordinates": [
          131.5263728690313,
          -28.824184782643236
        ]
      }
    },
    {
      "type": "Feature",
      "properties": {
        "norad_id": 43013,
        "name": "NOAA 20 (JPSS-1)",
        "group": "weather",
        "lat": -0.7092840397674792,
        "lon": -73.46931448947673,
        "alt_km": 829.7339044386727,
        "timestamp": "2025-12-16T03:53:26.701216+00:00",
        "meta_object_name": "NOAA 20 (JPSS-1)",
        "meta_object_id": "2017-073A",
        "meta_epoch": "2025-12-15T07:35:39.306624",
        "meta_mean_motion": 14.19526433,
        "meta_eccentricity": 0.00021542,
        "meta_inclination": 98.7601,
        "meta_ra_of_asc_node": 285.585,
        "meta_arg_of_pericenter": 83.5254,
        "meta_mean_anomaly": 276.6168,
        "meta_ephemeris_type": 0,
        "meta_classification_type": "U",
        "meta_norad_cat_id": 43013,
        "meta_element_set_no": 999,
        "meta_rev_at_epoch": 41838,
        "meta_bstar": 5.9927802e-05,
        "meta_mean_motion_dot": 8.2e-07,
        "meta_mean_motion_ddot": 0,
        "tle_line1": "1 43013U 17073A   25349.31642716  .00000082  00000+0  59928-4 0  9998",
        "tle_line2": "2 43013  98.7601 285.5850 0002154  83.5254 276.6168 14.19526433418384"
      },
      "geometry": {
        "type": "Point",
        "coordinates": [
          -73.46931448947673,
          -0.7092840397674792
        ]
      }
    },
    {
      "type": "Feature",
      "properties": {
        "norad_id": 43226,
        "name": "GOES 17",
        "group": "weather",
        "lat": -0.2453989097647436,
        "lon": 53.937921487741455,
        "alt_km": 35795.687090393076,
        "timestamp": "2025-12-16T03:53:26.701239+00:00",
        "meta_object_name": "GOES 17",
        "meta_object_id": "2018-022A",
        "meta_epoch": "2025-12-15T08:19:38.704800",
        "meta_mean_motion": 1.00271555,
        "meta_eccentricity": 0.00031547,
        "meta_inclination": 0.4662,
        "meta_ra_of_asc_node": 89.0982,
        "meta_arg_of_pericenter": 189.8367,
        "meta_mean_anomaly": 200.7349,
        "meta_ephemeris_type": 0,
        "meta_classification_type": "U",
        "meta_norad_cat_id": 43226,
        "meta_element_set_no": 999,
        "meta_rev_at_epoch": 2858,
        "meta_bstar": 0,
        "meta_mean_motion_dot": -1.62e-06,
        "meta_mean_motion_ddot": 0,
        "tle_line1": "1 43226U 18022A   25349.34697575 -.00000162  00000+0  00000+0 0  9997",
        "tle_line2": "2 43226   0.4662  89.0982 0003154 189.8367 200.7349  1.00271555 28582"
      },
      "geometry": {
        "type": "Point",
        "coordinates": [
          53.937921487741455,
          -0.2453989097647436
        ]
      }
    },
    {
      "type": "Feature",
      "properties": {
        "norad_id": 43491,
        "name": "FENGYUN 2H",
        "group": "weather",
        "lat": 1.5734140189284251,
        "lon": -137.21991920656998,
        "alt_km": 35776.05502217693,
        "timestamp": "2025-12-16T03:53:26.701253+00:00",
        "meta_object_name": "FENGYUN 2H",
        "meta_object_id": "2018-050A",
        "meta_epoch": "2025-12-15T01:46:49.826784",
        "meta_mean_motion": 1.00271322,
        "meta_eccentricity": 0.00026231,
        "meta_inclination": 2.557,
        "meta_ra_of_asc_node": 81.3055,
        "meta_arg_of_pericenter": 167.4021,
        "meta_mean_anomaly": 301.3409,
        "meta_ephemeris_type": 0,
        "meta_classification_type": "U",
        "meta_norad_cat_id": 43491,
        "meta_element_set_no": 999,
        "meta_rev_at_epoch": 2759,
        "meta_bstar": 0,
        "meta_mean_motion_dot": -1.11e-06,
        "meta_mean_motion_ddot": 0,
        "tle_line1": "1 43491U 18050A   25349.07418781 -.00000111  00000+0  00000+0 0  9996",
        "tle_line2": "2 43491   2.5570  81.3055 0002623 167.4021 301.3409  1.00271322 27599"
      },
      "geometry": {
        "type": "Point",
        "coordinates": [
          -137.21991920656998,
          1.5734140189284251
        ]
      }
    },
    {
      "type": "Feature",
      "properties": {
        "norad_id": 43689,
        "name": "METOP-C",
        "group": "weather",
        "lat": 15.181742673352362,
        "lon": -129.7413426617492,
        "alt_km": 821.6288774609366,
        "timestamp": "2025-12-16T03:53:26.701274+00:00",
        "meta_object_name": "METOP-C",
        "meta_object_id": "2018-087A",
        "meta_epoch": "2025-12-15T08:32:12.177600",
        "meta_mean_motion": 14.21485378,
        "meta_eccentricity": 0.00011284,
        "meta_inclination": 98.6929,
        "meta_ra_of_asc_node": 47.0854,
        "meta_arg_of_pericenter": 34.449,
        "meta_mean_anomaly": 325.676,
        "meta_ephemeris_type": 0,
        "meta_classification_type": "U",
        "meta_norad_cat_id": 43689,
        "meta_element_set_no": 999,
        "meta_rev_at_epoch": 36871,
        "meta_bstar": 8.1364504e-05,
        "meta_mean_motion_dot": 1.34e-06,
        "meta_mean_motion_ddot": 0,
        "tle_line1": "1 43689U 18087A   25349.35569650  .00000134  00000+0  81365-4 0  9990",
        "tle_line2": "2 43689  98.6929  47.0854 0001128  34.4490 325.6760 14.21485378368716"
      },
      "geometry": {
        "type": "Point",
        "coordinates": [
          -129.7413426617492,
          15.181742673352362
        ]
      }
    }
  ]
}